241P/LINEAR,e,21.0947,305.4391,111.5675,4.926295,0.0901412,0.61036628,108.4154,11/10.0/2024,2000,g 13.5,4.0
# From MPEC 2024-VB7
242P/Spahr,e,32.4335,180.3132,244.8858,5.535670,0.0756744,0.28254218,356.7374,11/10.0/2024,2000,g  8.0,4.0
# From MPEC 2022-K19
243P/NEAT,e,7.6441,87.6481,283.6855,3.827789,0.1316079,0.36046365,297.8235,11/10.0/2024,2000,g 12.5,4.0
# From MPEC 2024-L77
244P/Scotti,e,2.2582,354.0102,93.3842,4.902468,0.0907992,0.19987939,65.5237,11/10.0/2024,2000,g  9.0,4.0
# From MPEC 2022-CN4
245P/WISE,e,21.1732,316.8883,316.5271,4.051287,0.1208689,0.45569492,298.8051,11/10.0/2024,2000,g 14.0,4.0
# From MPEC 2024-L77
246P/NEAT,e,17.7499,74.2315,185.5646,4.218761,0.1137435,0.24320201,159.2975,11/10.0/2024,2000,g 10.5,4.0
# From MPEC 2021-F20
247P/LINEAR,e,13.6584,54.0014,47.4669,3.964947,0.1248384,0.62549312,270.7452,11/10.0/2024,2000,g 16.5,2.0
# From MPC 75730
248P/Gibbs,e,6.3516,207.8100,209.9609,5.983328,0.0673426,0.63932676,339.1984,11/10.0/2024,2000,g 14.0,4.0
# From MPEC 2022-YN2
249P/LINEAR,e,8.3854,239.0432,65.7445,2.764972,0.2143720,0.81935129,342.0583,11/10.0/2024,2000,g 15.5,4.0
# From MPEC 2024-TD8
250P/Larson,e,13.1536,73.3054,45.7547,3.779319,0.1341479,0.39885788,334.7992,11/10.0/2024,2000,g 14.5,4.0
# From MPEC 2024-TD8
251P/LINEAR,e,23.3870,219.3396,31.2054,3.512677,0.1497086,0.50430387,40.5402,11/10.0/2024,2000,g 16.5,2.0
# From MPEC 2021-S45
252P/LINEAR,e,10.4178,190.9060,343.3774,3.051251,0.1849214,0.67090227,225.3968,11/10.0/2024,2000,g 17.5,4.0
# From MPEC 2024-VB7
253P/PANSTARRS,e,4.9441,146.8641,230.8194,3.462574,0.1529697,0.41465882,3.0615,11/10.0/2024,2000,g 14.5,4.0
# From MPEC 2024-EF7
254P/McNaught,e,32.5430,129.1837,219.7456,4.619256,0.0992764,0.31876771,149.1728,11/10.0/2024,2000,g 11.0,4.0
# From NK 2214
255P/Levy,e,13.4041,275.6365,186.0369,2.942377,0.1952794,0.71198426,155.0818,11/10.0/2024,2000,g  9.0,4.0
# From MPEC 2024-L77
256P/LINEAR,e,27.6244,81.3292,124.1008,4.636243,0.0987313,0.41787585,60.1324,11/10.0/2024,2000,g 14.0,2.0
# From MPEC 2023-A50
257P/Catalina,e,20.2181,207.7213,117.7628,3.767071,0.1348026,0.42898311,205.2901,11/10.0/2024,2000,g 11.5,4.0
# From MPEC 2021-U31
258P/PANSTARRS,e,6.7506,126.2340,25.5883,4.389998,0.1071538,0.20923853,172.1405,11/10.0/2024,2000,g 13.0,4.0
# From MPC106349
259P/Garradd,e,15.8985,51.3706,257.5203,2.728981,0.2186267,0.33876807,220.0267,11/10.0/2024,2000,g 15.5,4.0
# From MPEC 2022-O01
260P/McNaught,e,15.0457,349.3206,18.4866,3.623457,0.1428958,0.60895133,269.5627,11/10.0/2024,2000,g 13.5,4.0
# From MPEC 2021-J28
261P/Larson,e,6.0729,291.0535,67.3619,3.490071,0.1511655,0.42293627,297.6686,11/10.0/2024,2000,g 14.0,4.0
# From MPC 82322
262P/McNaught-Russell,e,29.2678,217.8885,171.0684,6.869320,0.0547436,0.81620443,238.1819,11/10.0/2024,2000,g 13.5,4.0
# From MPEC 2024-L77
263P/Gibbs,e,11.5259,105.5026,35.0218,3.041104,0.1858477,0.59387179,120.6683,11/10.0/2024,2000,g 18.0,4.0
# From MPC114608
264P/Larsen,e,25.2810,219.3510,341.1998,4.023285,0.1221329,0.34156791,255.5155,11/10.0/2024,2000,g 13.0,4.0
# From MPC 79870
265P/LINEAR,e,14.3474,342.9366,33.5432,4.259919,0.1120991,0.64705503,153.5672,11/10.0/2024,2000,g 14.5,4.0
# From MPEC 2021-F20
266P/Christensen,e,3.4277,4.9537,97.7420,3.528808,0.1486832,0.34081357,247.4072,11/10.0/2024,2000,g 14.7,4.0
# From MPC114608
267P/LONEOS,e,6.1423,228.5962,114.2348,3.210342,0.1713472,0.61445003,34.1267,11/10.0/2024,2000,g 19.5,4.0
# From MPC 92277
268P/Bernardi,e,15.6417,124.7129,0.0086,4.628204,0.0989886,0.47206839,356.2610,11/10.0/2024,2000,g 14.0,4.0
# From MPEC 2023-J29
269P/Jedicke,e,7.0847,241.7738,225.6863,7.060242,0.0525381,0.43323734,193.7073,11/10.0/2024,2000,g 10.0,4.0
# From MPC 88332
270P/Gehrels,e,2.9252,223.0377,209.8776,6.650935,0.0574619,0.47015929,239.0335,11/10.0/2024,2000,g  8.0,4.0
# From MPC 92277
271P/van Houten-Lemmon,e,6.8686,9.3042,36.5674,7.032281,0.0528518,0.39611497,217.9698,11/10.0/2024,2000,g 11.0,4.0
# From MPEC 2023-D41
272P/NEAT,e,18.0799,109.4407,27.8808,4.461807,0.1045774,0.45533297,88.5529,11/10.0/2024,2000,g 16.0,2.0
# From MPC 82723
273P/Pons-Gambart,e,136.4618,320.3947,20.1672,31.96899,0.0054527,0.97447061,0.0000,12/22.3583/2012,2000,g 11.5,4.0
# From MPEC 2024-GJ3
274P/Tombaugh-Tenagra,e,15.8210,81.3179,38.4766,4.378135,0.1075896,0.44011871,101.7952,11/10.0/2024,2000,g 13.0,4.0
# From MPC 81862
275P/Hermann,e,21.2556,348.6887,173.9051,5.792628,0.0706953,0.71355537,309.2998,11/10.0/2024,2000,g 17.0,4.0
# From MPEC 2024-VB7
276P/Vorobjov,e,14.8026,211.3383,199.2662,5.348751,0.0796756,0.27110142,357.5472,11/10.0/2024,2000,g 11.5,4.0
# From MPEC 2021-F20
277P/LINEAR,e,16.7913,276.2625,152.4168,3.853535,0.1302912,0.50648138,183.6604,11/10.0/2024,2000,g 15.1,4.0
# From MPEC 2021-S45
278P/McNaught,e,6.6442,14.5332,238.1559,3.660216,0.1407486,0.44484432,213.0522,11/10.0/2024,2000,g 14.0,4.0
# From MPEC 2024-A43
279P/LaSagra,e,5.0510,346.1162,5.6954,3.570039,0.1461150,0.39933564,83.4382,11/10.0/2024,2000,g 14.0,4.0
# From MPEC 2024-RQ6
280P/Larsen,e,11.7746,131.3758,104.6831,4.525985,0.1023610,0.41679740,47.4452,11/10.0/2024,2000,g 12.5,4.0
# From MPEC 2023-D41
281P/MOSS,e,4.7177,87.1661,26.8773,4.884567,0.0912988,0.17381850,58.9593,11/10.0/2024,2000,g 11.0,4.0
# From MPC133426
282P/,e,5.8128,217.6107,9.1736,4.236307,0.1130376,0.18760464,125.8927,11/10.0/2024,2000,g 13.5,2.0
# From MPEC 2022-K19
283P/Spacewatch,e,14.4642,161.1209,22.1524,4.132630,0.1173179,0.48463986,135.9916,11/10.0/2024,2000,g 16.0,2.0
# From MPEC 2024-D33
284P/McNaught,e,11.8550,144.2677,202.4771,3.678217,0.1397166,0.37458250,161.3891,11/10.0/2024,2000,g 13.0,4.0
# From MPEC 2024-L77
285P/LINEAR,e,25.0359,185.5079,178.3913,4.505728,0.1030520,0.61827066,68.8345,11/10.0/2024,2000,g 15.0,4.0
# From MPEC 2024-LE0
286P/Christensen,e,17.1580,283.5872,24.4549,4.092699,0.1190390,0.42817811,108.6972,11/10.0/2024,2000,g 14.0,4.0
# From MPEC 2024-TP3
287P/Christensen,e,16.3134,138.9284,189.6773,4.175441,0.1155182,0.27255559,56.6922,11/10.0/2024,2000,g 13.5,4.0
# From MPC133426
288P/,e,3.2383,83.1048,280.3077,3.049784,0.1850549,0.19989440,182.2044,11/10.0/2024,2000,g 16.0,2.0
# From MPEC 2024-O39
289P/Blanpain,e,5.9003,68.8917,9.8750,3.043926,0.1855893,0.68645921,331.1742,11/10.0/2024,2000,g 19.0,4.0
# From MPC 95214
290P/Jager,e,20.0478,302.6763,181.8342,6.215143,0.0636103,0.62806019,250.8859,11/10.0/2024,2000,g 10.5,4.0
# From MPEC 2024-L77
291P/NEAT,e,6.3098,237.6588,173.5357,4.534130,0.1020853,0.43404292,56.7549,11/10.0/2024,2000,g 13.0,4.0
# From MPEC 2022-K19
292P/Li,e,24.3209,90.8962,319.6432,6.097049,0.0654673,0.59001086,256.9385,11/10.0/2024,2000,g 12.5,4.0
# From MPEC 2022-L66
293P/Spacewatch,e,9.0615,78.3670,40.9565,3.638387,0.1420171,0.41933180,201.7800,11/10.0/2024,2000,g 14.5,4.0
# From MPEC 2020-SI8
294P/LINEAR,e,18.1588,311.2710,235.8817,3.194360,0.1726347,0.60037525,312.5646,11/10.0/2024,2000,g 15.5,4.0
# From MPEC 2022-K19
295P/LINEAR,e,21.0808,7.3914,73.0054,5.300810,0.0807590,0.61765347,309.9544,11/10.0/2024,2000,g 12.0,4.0
# From MPEC 2021-N06
296P/Garradd,e,25.3657,263.5245,349.9495,3.481881,0.1516991,0.48293587,229.2240,11/10.0/2024,2000,g 14.0,4.0
# From MPC102956
297P/Beshore,e,11.1167,92.4033,141.7921,3.544084,0.1477230,0.29801782,204.5789,11/10.0/2024,2000,g 15.0,4.0
# From MPC114609
298P/Christensen,e,7.8713,52.7949,100.5983,3.588752,0.1449736,0.38666562,221.2598,11/10.0/2024,2000,g 15.0,4.0
# From MPEC 2024-TD8
299P/Catalina-PANSTARRS,e,10.4688,271.5806,323.6576,4.389273,0.1071804,0.28091845,20.7724,11/10.0/2024,2000,g 11.5,4.0
# From MPEC 2023-VM5
300P/Catalina,e,5.6763,95.6198,222.9004,2.696896,0.2225398,0.69187344,128.8349,11/10.0/2024,2000,g 16.0,4.0
# From MPC 89014
301P/LINEAR-NEAT,e,10.3293,351.0658,193.4595,5.749504,0.0714922,0.58597970,268.1517,11/10.0/2024,2000,g 13.0,4.0
# From MPEC 2024-UQ8
302P/Lemmon-PANSTARRS,e,6.0353,121.7145,208.6310,4.268795,0.1117496,0.22961157,346.6550,11/10.0/2024,2000,g 12.5,4.0
# From MPC 92278
303P/NEAT,e,7.0163,347.9612,357.0234,5.040675,0.0870906,0.51041997,319.3389,11/10.0/2024,2000,g 13.5,4.0
# From MPEC 2022-K19
304P/Ory,e,2.6060,58.9408,335.2717,3.150037,0.1762912,0.60094162,273.0644,11/10.0/2024,2000,g 16.5,4.0
# From MPEC 2024-VB7
305P/Skiff,e,11.6717,240.1073,147.4190,4.635927,0.0987414,0.69398132,359.2933,11/10.0/2024,2000,g 18.0,4.0
# From MPC 92278
306P/LINEAR,e,8.3031,341.3596,0.8958,3.124532,0.1784541,0.59263962,312.7741,11/10.0/2024,2000,g 19.0,4.0
# From MPC 92278
307P/LINEAR,e,4.4355,158.1396,222.2330,5.787826,0.0707833,0.67527263,255.0443,11/10.0/2024,2000,g 15.0,4.0
# From MPEC 2022-C56
308P/Lagerkvist-Carsenty,e,4.8531,63.0970,333.7405,6.600078,0.0581273,0.36450266,201.4956,11/10.0/2024,2000,g 13.0,2.0
# From MPEC 2024-BE0
309P/LINEAR,e,17.0215,10.1366,49.9071,4.374543,0.1077222,0.61830883,24.3484,11/10.0/2024,2000,g 15.0,4.0
# From MPEC 2024-LE0
310P/Hill,e,13.1199,8.8847,31.5311,4.182048,0.1152446,0.42226933,44.2229,11/10.0/2024,2000,g 13.5,4.0
# From MPEC 2024-A43
311P/PANSTARRS,e,4.9713,279.1712,144.2243,2.188303,0.3044688,0.11562448,95.3616,11/10.0/2024,2000,g 17.0,4.0
# From MPEC 2024-NE4
312P/NEAT,e,19.7486,144.6473,207.7094,3.471708,0.1523664,0.42691023,229.6738,11/10.0/2024,2000,g 16.0,4.0
# From MPEC 2024-N80
313P/Gibbs,e,10.9805,105.9258,254.9680,3.163837,0.1751390,0.23461402,292.1083,11/10.0/2024,2000,g 15.0,4.0
# From MPC105243
314P/Montani,e,3.9917,267.6215,213.8455,7.250143,0.0504875,0.41826329,149.0004,11/10.0/2024,2000,g  9.5,4.0
# From MPEC 2023-J29
315P/LONEOS,e,17.7329,68.6651,65.8553,4.937723,0.0898285,0.52184416,261.0395,11/10.0/2024,2000,g 11.0,4.0
# From MPEC 2024-NE4
316P/LONEOS-Christensen,e,9.8878,245.9337,188.0178,4.423699,0.1059316,0.15901808,3.0694,11/10.0/2024,2000,g 13.5,4.0
# From MPEC 2020-C98
317P/WISE,e,11.9739,275.4703,334.8626,2.960104,0.1935279,0.57187688,291.3193,11/10.0/2024,2000,g 17.5,4.0
# From MPC102103
318P/McNaught-Hartley,e,17.8708,35.5800,313.3255,7.512597,0.0478651,0.67377391,158.1771,11/10.0/2024,2000,g  8.5,6.0
# From MPC 97499
